[
  {
    "OBJECT_NAME": "ISS (ZARYA)",
    "OBJECT_ID": "1998-067A",
    "EPOCH": "2025-11-10T19:21:41.474592",
    "MEAN_MOTION": 15.49512626,
    "ECCENTRICITY": 0.00041371,
    "INCLINATION": 51.6337,
    "RA_OF_ASC_NODE": 300.5531,
    "ARG_OF_PERICENTER": 56.1394,
    "MEAN_ANOMALY": 303.9988,
    "EPHEMERIS_TYPE": 0,
    "CLASSIFICATION_TYPE": "U",
    "NORAD_CAT_ID": 25544,
    "ELEMENT_SET_NO": 999,
    "REV_AT_EPOCH": 53790,
    "BSTAR": 0.00020668468,
    "MEAN_MOTION_DOT": 0.00011159,
    "MEAN_MOTION_DDOT": 0
  },
  {
    "OBJECT_NAME": "CSS (TIANHE)",
    "OBJECT_ID": "2021-035A",
    "EPOCH": "2025-11-10T22:38:39.077376",
    "MEAN_MOTION": 15.60859823,
    "ECCENTRICITY": 0.00047056,
    "INCLINATION": 41.4651,
    "RA_OF_ASC_NODE": 209.7335,
    "ARG_OF_PERICENTER": 1.026,
    "MEAN_ANOMALY": 359.0588,
    "EPHEMERIS_TYPE": 0,
    "CLASSIFICATION_TYPE": "U",
    "NORAD_CAT_ID": 48274,
    "ELEMENT_SET_NO": 999,
    "REV_AT_EPOCH": 25906,
    "BSTAR": 0.0004154796,
    "MEAN_MOTION_DOT": 0.00035552,
    "MEAN_MOTION_DDOT": 0
  },
  {
    "OBJECT_NAME": "ISS (NAUKA)",
    "OBJECT_ID": "2021-066A",
    "EPOCH": "2025-11-10T19:21:41.474592",
    "MEAN_MOTION": 15.49512626,
    "ECCENTRICITY": 0.00041371,
    "INCLINATION": 51.6337,
    "RA_OF_ASC_NODE": 300.5531,
    "ARG_OF_PERICENTER": 56.1394,
    "MEAN_ANOMALY": 303.9988,
    "EPHEMERIS_TYPE": 0,
    "CLASSIFICATION_TYPE": "U",
    "NORAD_CAT_ID": 49044,
    "ELEMENT_SET_NO": 999,
    "REV_AT_EPOCH": 23044,
    "BSTAR": 0.00020668468,
    "MEAN_MOTION_DOT": 0.00011159,
    "MEAN_MOTION_DDOT": 0
  },
  {
    "OBJECT_NAME": "FREGAT DEB",
    "OBJECT_ID": "2011-037PF",
    "EPOCH": "2025-11-10T08:13:56.274816",
    "MEAN_MOTION": 12.33907876,
    "ECCENTRICITY": 0.08825741,
    "INCLINATION": 51.6287,
    "RA_OF_ASC_NODE": 295.2324,
    "ARG_OF_PERICENTER": 154.0554,
    "MEAN_ANOMALY": 210.7438,
    "EPHEMERIS_TYPE": 0,
    "CLASSIFICATION_TYPE": "U",
    "NORAD_CAT_ID": 49271,
    "ELEMENT_SET_NO": 999,
    "REV_AT_EPOCH": 19793,
    "BSTAR": 0.0190319,
    "MEAN_MOTION_DOT": 8.878e-5,
    "MEAN_MOTION_DDOT": 0
  },
  {
    "OBJECT_NAME": "CSS (WENTIAN)",
    "OBJECT_ID": "2022-085A",
    "EPOCH": "2025-11-10T22:38:39.077376",
    "MEAN_MOTION": 15.60859823,
    "ECCENTRICITY": 0.00047056,
    "INCLINATION": 41.4651,
    "RA_OF_ASC_NODE": 209.7335,
    "ARG_OF_PERICENTER": 1.026,
    "MEAN_ANOMALY": 359.0588,
    "EPHEMERIS_TYPE": 0,
    "CLASSIFICATION_TYPE": "U",
    "NORAD_CAT_ID": 53239,
    "ELEMENT_SET_NO": 999,
    "REV_AT_EPOCH": 17384,
    "BSTAR": 0.0004154796,
    "MEAN_MOTION_DOT": 0.00035552,
    "MEAN_MOTION_DDOT": 0
  },
  {
    "OBJECT_NAME": "CSS (MENGTIAN)",
    "OBJECT_ID": "2022-143A",
    "EPOCH": "2025-11-10T22:38:39.077376",
    "MEAN_MOTION": 15.60859823,
    "ECCENTRICITY": 0.00047056,
    "INCLINATION": 41.4651,
    "RA_OF_ASC_NODE": 209.7335,
    "ARG_OF_PERICENTER": 1.026,
    "MEAN_ANOMALY": 359.0588,
    "EPHEMERIS_TYPE": 0,
    "CLASSIFICATION_TYPE": "U",
    "NORAD_CAT_ID": 54216,
    "ELEMENT_SET_NO": 999,
    "REV_AT_EPOCH": 15864,
    "BSTAR": 0.0004154796,
    "MEAN_MOTION_DOT": 0.00035552,
    "MEAN_MOTION_DDOT": 0
  },
  {
    "OBJECT_NAME": "SOYUZ-MS 27",
    "OBJECT_ID": "2025-072A",
    "EPOCH": "2025-11-10T19:21:41.474592",
    "MEAN_MOTION": 15.49512626,
    "ECCENTRICITY": 0.00041371,
    "INCLINATION": 51.6337,
    "RA_OF_ASC_NODE": 300.5531,
    "ARG_OF_PERICENTER": 56.1394,
    "MEAN_ANOMALY": 303.9988,
    "EPHEMERIS_TYPE": 0,
    "CLASSIFICATION_TYPE": "U",
    "NORAD_CAT_ID": 63520,
    "ELEMENT_SET_NO": 999,
    "REV_AT_EPOCH": 2020,
    "BSTAR": 0.00020668468,
    "MEAN_MOTION_DOT": 0.00011159,
    "MEAN_MOTION_DDOT": 0
  },
  {
    "OBJECT_NAME": "SHENZHOU-20 (SZ-20)",
    "OBJECT_ID": "2025-082A",
    "EPOCH": "2025-11-10T22:38:39.077376",
    "MEAN_MOTION": 15.60859823,
    "ECCENTRICITY": 0.00047056,
    "INCLINATION": 41.4651,
    "RA_OF_ASC_NODE": 209.7335,
    "ARG_OF_PERICENTER": 1.026,
    "MEAN_ANOMALY": 359.0588,
    "EPHEMERIS_TYPE": 0,
    "CLASSIFICATION_TYPE": "U",
    "NORAD_CAT_ID": 63632,
    "ELEMENT_SET_NO": 999,
    "REV_AT_EPOCH": 25530,
    "BSTAR": 0.0004154796,
    "MEAN_MOTION_DOT": 0.00035552,
    "MEAN_MOTION_DDOT": 0
  },
  {
    "OBJECT_NAME": "PROGRESS-MS 31",
    "OBJECT_ID": "2025-146A",
    "EPOCH": "2025-11-10T19:21:41.474592",
    "MEAN_MOTION": 15.49512626,
    "ECCENTRICITY": 0.00041371,
    "INCLINATION": 51.6337,
    "RA_OF_ASC_NODE": 300.5531,
    "ARG_OF_PERICENTER": 56.1394,
    "MEAN_ANOMALY": 303.9988,
    "EPHEMERIS_TYPE": 0,
    "CLASSIFICATION_TYPE": "U",
    "NORAD_CAT_ID": 64751,
    "ELEMENT_SET_NO": 999,
    "REV_AT_EPOCH": 675,
    "BSTAR": 0.00020668468,
    "MEAN_MOTION_DOT": 0.00011159,
    "MEAN_MOTION_DDOT": 0
  },
  {
    "OBJECT_NAME": "TIANZHOU-9",
    "OBJECT_ID": "2025-149A",
    "EPOCH": "2025-11-10T22:38:39.077376",
    "MEAN_MOTION": 15.60859823,
    "ECCENTRICITY": 0.00047056,
    "INCLINATION": 41.4651,
    "RA_OF_ASC_NODE": 209.7335,
    "ARG_OF_PERICENTER": 1.026,
    "MEAN_ANOMALY": 359.0588,
    "EPHEMERIS_TYPE": 0,
    "CLASSIFICATION_TYPE": "U",
    "NORAD_CAT_ID": 64786,
    "ELEMENT_SET_NO": 999,
    "REV_AT_EPOCH": 25530,
    "BSTAR": 0.0004154796,
    "MEAN_MOTION_DOT": 0.00035552,
    "MEAN_MOTION_DDOT": 0
  },
  {
    "OBJECT_NAME": "CREW DRAGON 11",
    "OBJECT_ID": "2025-166A",
    "EPOCH": "2025-11-10T19:21:41.474592",
    "MEAN_MOTION": 15.49512626,
    "ECCENTRICITY": 0.00041371,
    "INCLINATION": 51.6337,
    "RA_OF_ASC_NODE": 300.5531,
    "ARG_OF_PERICENTER": 56.1394,
    "MEAN_ANOMALY": 303.9988,
    "EPHEMERIS_TYPE": 0,
    "CLASSIFICATION_TYPE": "U",
    "NORAD_CAT_ID": 65077,
    "ELEMENT_SET_NO": 999,
    "REV_AT_EPOCH": 214,
    "BSTAR": 0.00020668468,
    "MEAN_MOTION_DOT": 0.00011159,
    "MEAN_MOTION_DDOT": 0
  },
  {
    "OBJECT_NAME": "DRAGON CRS-33",
    "OBJECT_ID": "2025-186A",
    "EPOCH": "2025-11-10T19:21:41.474592",
    "MEAN_MOTION": 15.49512626,
    "ECCENTRICITY": 0.00041371,
    "INCLINATION": 51.6337,
    "RA_OF_ASC_NODE": 300.5531,
    "ARG_OF_PERICENTER": 56.1394,
    "MEAN_ANOMALY": 303.9988,
    "EPHEMERIS_TYPE": 0,
    "CLASSIFICATION_TYPE": "U",
    "NORAD_CAT_ID": 65304,
    "ELEMENT_SET_NO": 999,
    "REV_AT_EPOCH": 11,
    "BSTAR": 0.00020668468,
    "MEAN_MOTION_DOT": 0.00011159,
    "MEAN_MOTION_DDOT": 0
  },
  {
    "OBJECT_NAME": "PROGRESS-MS 32",
    "OBJECT_ID": "2025-204A",
    "EPOCH": "2025-11-10T19:21:41.474592",
    "MEAN_MOTION": 15.49512626,
    "ECCENTRICITY": 0.00041371,
    "INCLINATION": 51.6337,
    "RA_OF_ASC_NODE": 300.5531,
    "ARG_OF_PERICENTER": 56.1394,
    "MEAN_ANOMALY": 303.9988,
    "EPHEMERIS_TYPE": 0,
    "CLASSIFICATION_TYPE": "U",
    "NORAD_CAT_ID": 65586,
    "ELEMENT_SET_NO": 999,
    "REV_AT_EPOCH": 27,
    "BSTAR": 0.00020668468,
    "MEAN_MOTION_DOT": 0.00011159,
    "MEAN_MOTION_DDOT": 0
  },
  {
    "OBJECT_NAME": "CYGNUS NG-23",
    "OBJECT_ID": "2025-208A",
    "EPOCH": "2025-11-10T19:21:41.474592",
    "MEAN_MOTION": 15.49512626,
    "ECCENTRICITY": 0.00041371,
    "INCLINATION": 51.6337,
    "RA_OF_ASC_NODE": 300.5531,
    "ARG_OF_PERICENTER": 56.1394,
    "MEAN_ANOMALY": 303.9988,
    "EPHEMERIS_TYPE": 0,
    "CLASSIFICATION_TYPE": "U",
    "NORAD_CAT_ID": 65616,
    "ELEMENT_SET_NO": 999,
    "REV_AT_EPOCH": 22,
    "BSTAR": 0.00020668468,
    "MEAN_MOTION_DOT": 0.00011159,
    "MEAN_MOTION_DDOT": 0
  }
]