ISS (ZARYA)             
1 25544U 98067A   25314.80673003  .00011159  00000+0  20668-3 0  9993
2 25544  51.6337 300.5531 0004137  56.1394 303.9988 15.49512626537902
CSS (TIANHE)            
1 48274U 21035A   25314.94350784  .00035552  00000+0  41548-3 0  9995
2 48274  41.4651 209.7335 0004705   1.0260 359.0588 15.60859823259069
ISS (NAUKA)             
1 49044U 21066A   25314.80673003  .00011159  00000+0  20668-3 0  9999
2 49044  51.6337 300.5531 0004137  56.1394 303.9988 15.49512626230442
FREGAT DEB              
1 49271U 11037PF  25314.34301244  .00008878  00000+0  19032-1 0  9997
2 49271  51.6287 295.2324 0882574 154.0554 210.7438 12.33907876197939
CSS (WENTIAN)           
1 53239U 22085A   25314.94350784  .00035552  00000+0  41548-3 0  9998
2 53239  41.4651 209.7335 0004705   1.0260 359.0588 15.60859823173847
CSS (MENGTIAN)          
1 54216U 22143A   25314.94350784  .00035552  00000+0  41548-3 0  9999
2 54216  41.4651 209.7335 0004705   1.0260 359.0588 15.60859823158644
SOYUZ-MS 27             
1 63520U 25072A   25314.80673003  .00011159  00000+0  20668-3 0  9995
2 63520  51.6337 300.5531 0004137  56.1394 303.9988 15.49512626 20208
SHENZHOU-20 (SZ-20)     
1 63632U 25082A   25314.94350784  .00035552  00000+0  41548-3 0  9996
2 63632  41.4651 209.7335 0004705   1.0260 359.0588 15.60859823255307
PROGRESS-MS 31          
1 64751U 25146A   25314.80673003  .00011159  00000+0  20668-3 0  9994
2 64751  51.6337 300.5531 0004137  56.1394 303.9988 15.49512626  6759
TIANZHOU-9              
1 64786U 25149A   25314.94350784  .00035552  00000+0  41548-3 0  9991
2 64786  41.4651 209.7335 0004705   1.0260 359.0588 15.60859823255308
CREW DRAGON 11          
1 65077U 25166A   25314.80673003  .00011159  00000+0  20668-3 0  9998
2 65077  51.6337 300.5531 0004137  56.1394 303.9988 15.49512626  2140
DRAGON CRS-33           
1 65304U 25186A   25314.80673003  .00011159  00000+0  20668-3 0  9993
2 65304  51.6337 300.5531 0004137  56.1394 303.9988 15.49512626   118
PROGRESS-MS 32          
1 65586U 25204A   25314.80673003  .00011159  00000+0  20668-3 0  9996
2 65586  51.6337 300.5531 0004137  56.1394 303.9988 15.49512626   277
CYGNUS NG-23            
1 65616U 25208A   25314.80673003  .00011159  00000+0  20668-3 0  9994
2 65616  51.6337 300.5531 0004137  56.1394 303.9988 15.49512626   226
